SL-8 R/B                
1 15483U 85006B   26199.96106663  .00000120  00000+0  48579-4 0  9993
2 15483  74.0455  19.5903 0019248 262.1031 209.2779 14.37846549172898
SL-12 R/B(2)            
1 15772U 85042D   26200.24669623  .00000060  00000+0  48336-4 0  9992
2 15772  71.1069 169.7815 0037370 280.2620 179.0766 14.22011452133099
SL-14 R/B               
1 15945U 85069B   26200.21003808  .00000184  00000+0  17902-4 0  9999
2 15945  82.5257 261.2503 0020228 114.8787 245.4536 14.86536645192373
SL-16 R/B               
1 16182U 85097B   26200.31560473  .00000231  00000+0  13967-3 0  9990
2 16182  71.0005 223.4376 0005820  43.2426 327.6800 14.16614784105875
SL-14 R/B               
1 16496U 86006B   26200.28499564  .00000240  00000+0  22633-4 0  9998
2 16496  82.5284 135.9095 0075816 195.1894 164.7048 14.86969974168764
COSMOS 1743             
1 16719U 86034A   26200.23763440  .00034784  00000+0  28959-3 0  9995
2 16719  82.5271 294.5806 0005556 164.1372 196.0065 15.69924746200811
SL-14 R/B               
1 16792U 86046B   26200.27927217  .00000243  00000+0  25022-4 0  9999
2 16792  82.4840 315.8522 0023894 149.8518 210.4079 14.85692320145947
SL-14 R/B               
1 16882U 86055B   26200.22394956  .00000216  00000+0  22086-4 0  9999
2 16882  82.5207   3.0080 0017350 255.7875 277.1100 14.85741756138892
AJISAI (EGS)            
1 16908U 86061A   26200.31795139 -.00000103  00000+0 -39354-4 0  9996
2 16908  50.0104  48.5941 0011079 262.4419  74.7798 12.44516671484389
SL-14 R/B               
1 17567U 87024B   26199.86088090  .00000233  00000+0  23621-4 0  9998
2 17567  82.5302 329.4789 0018159 181.4836 178.6330 14.86233273107617
COSMOS 1833             
1 17589U 87027A   26200.03421472  .00000016  00000+0  34394-4 0  9990
2 17589  70.9213  49.9310 0024525   2.5532 357.5710 14.13067442 28870
SL-16 R/B               
1 17590U 87027B   26199.83779981  .00000207  00000+0  12639-3 0  9997
2 17590  71.0036   0.1294 0007188 277.9978  82.0330 14.17174860 33922
SL-14 R/B               
1 17912U 87038B   26199.99076646  .00000214  00000+0  21877-4 0  9995
2 17912  82.5015 173.1151 0020876  90.6237 269.7371 14.85462840 98725
COSMOS 1844             
1 17973U 87041A   26200.21111101 -.00000023  00000+0  13099-4 0  9996
2 17973  70.9000 116.7596 0031055 189.5290 170.5247 14.14581291 22183
SL-14 R/B               
1 18153U 87055B   26200.14648834  .00000178  00000+0  17747-4 0  9996
2 18153  82.4969 225.0998 0019201 301.1255  58.8077 14.85728313 89456
COSMOS 1867             
1 18187U 87060A   26200.26921840 -.00000051  00000+0  18546-4 0  9992
2 18187  65.0117 298.2108 0017251 281.9613  77.9537 14.31518757 38778
SL-14 R/B               
1 18749U 88001B   26200.15078442  .00000176  00000+0  17436-4 0  9995
2 18749  82.5117  71.7002 0018480 158.9698 201.2282 14.85628117 61545
COSMOS 1933             
1 18958U 88020A   26200.18830999  .00002030  00000+0  95766-4 0  9997
2 18958  82.5141 120.7433 0005927  97.1387 263.0521 15.18904236 70186
SL-3 R/B                
1 19046U 88032B   26200.21725285  .00002053  00000+0  94824-4 0  9993
2 19046  97.5279 183.2338 0026824 132.3302 228.0212 15.21048514 72091
SL-16 R/B               
1 19120U 88039B   26200.25156484  .00000109  00000+0  74384-4 0  9995
2 19120  71.0143 150.3580 0020393 142.8139 217.4403 14.19631629977059
COSMOS 1953             
1 19210U 88050A   26200.25772548  .00004107  00000+0  13849-3 0  9993
2 19210  82.5069  25.6791 0011149  26.7294 333.4519 15.30369167 57899
SL-8 R/B                
1 19257U 88053B   26200.19515260  .00000097  00000+0  40066-4 0  9992
2 19257  74.0453 230.0553 0019880  14.4309  51.1970 14.38979441995516
COSMOS 1975             
1 19573U 88093A   26199.88397351  .00004082  00000+0  14045-3 0  9994
2 19573  82.5208 345.8071 0012394  70.9795 289.2787 15.29689461 39451
SL-14 R/B               
1 19574U 88093B   26200.18966204  .00000179  00000+0  17800-4 0  9996
2 19574  82.5312 278.6022 0019691 326.6089  63.4550 14.85761422 20540
SL-16 R/B               
1 19650U 88102B   26200.21448678  .00000113  00000+0  81372-4 0  9999
2 19650  70.9972 234.7496 0014083 179.2349 180.8798 14.16167056945515
INTERCOSMOS 24          
1 20261U 89080A   26200.02200097  .00000118  00000+0  31260-4 0  9991
2 20261  82.6054  18.9227 1187002 348.0627   9.4431 12.59692918683332
SL-14 R/B               
1 20262U 89080C   26200.16287689  .00000056  00000+0  15784-4 0  9993
2 20262  82.5929  88.7623 1228842 244.2122 102.7276 12.50578938676582
DELTA 1 R/B             
1 20323U 89089B   26200.08447433  .00000111  00000+0  36007-4 0  9999
2 20323  97.0637  26.5384 0070568  67.9535 292.9139 14.50749067914780
ARIANE 40 R/B           
1 20443U 90005H   26200.14814196  .00000082  00000+0  39370-4 0  9996
2 20443  98.2941 256.7675 0010535 162.5353 197.6200 14.39941767911721
DELTA 2 R/B(1)          
1 20453U 90008B   26199.57360949  .00081373  00000+0  48844-3 0  9993
2 20453  35.5998  24.8567 0057119  48.2970 312.2639 15.74164493946649
