OBJECT_NAME,OBJECT_ID,EPOCH,MEAN_MOTION,ECCENTRICITY,INCLINATION,RA_OF_ASC_NODE,ARG_OF_PERICENTER,MEAN_ANOMALY,EPHEMERIS_TYPE,CLASSIFICATION_TYPE,NORAD_CAT_ID,ELEMENT_SET_NO,REV_AT_EPOCH,BSTAR,MEAN_MOTION_DOT,MEAN_MOTION_DDOT
SL-8 R/B,1985-006B,2026-07-18T23:03:56.156832,14.37846549,.00192482,74.0455,19.5903,262.1031,209.2779,0,U,15483,999,17289,.48579043E-4,.12E-5,0
SL-12 R/B(2),1985-042D,2026-07-19T05:55:14.554272,14.22011452,.00373702,71.1069,169.7815,280.2620,179.0766,0,U,15772,999,13309,.48336355E-4,.6E-6,0
SL-14 R/B,1985-069B,2026-07-19T05:02:27.290112,14.86536645,.0020228,82.5257,261.2503,114.8787,245.4536,0,U,15945,999,19237,.17902363E-4,.184E-5,0
SL-16 R/B,1985-097B,2026-07-19T07:34:28.248672,14.16614784,.00058207,71.0005,223.4376,43.2426,327.6800,0,U,16182,999,10587,.13966604E-3,.231E-5,0
SL-14 R/B,1986-006B,2026-07-19T06:50:23.623296,14.86969974,.00758163,82.5284,135.9095,195.1894,164.7048,0,U,16496,999,16876,.22632556E-4,.24E-5,0
COSMOS 1743,1986-034A,2026-07-19T05:42:11.612160,15.69924746,.00055566,82.5271,294.5806,164.1372,196.0065,0,U,16719,999,20081,.28959048E-3,.34784E-3,0
SL-14 R/B,1986-046B,2026-07-19T06:42:09.115488,14.85692320,.00238946,82.4840,315.8522,149.8518,210.4079,0,U,16792,999,14594,.25021861E-4,.243E-5,0
SL-14 R/B,1986-055B,2026-07-19T05:22:29.241984,14.85741756,.00173503,82.5207,3.0080,255.7875,277.1100,0,U,16882,999,13889,.22085615E-4,.216E-5,0
AJISAI (EGS),1986-061A,2026-07-19T07:37:51.000096,12.44516671,.00110795,50.0104,48.5941,262.4419,74.7798,0,U,16908,999,48438,-.39354161E-4,-.103E-5,0
SL-14 R/B,1987-024B,2026-07-18T20:39:40.109760,14.86233273,.00181595,82.5302,329.4789,181.4836,178.6330,0,U,17567,999,10761,.23620729E-4,.233E-5,0
COSMOS 1833,1987-027A,2026-07-19T00:49:16.151808,14.13067442,.00245255,70.9213,49.9310,2.5532,357.5710,0,U,17589,999,2887,.34393926E-4,.16E-6,0
SL-16 R/B,1987-027B,2026-07-18T20:06:25.903584,14.17174860,.00071882,71.0036,0.1294,277.9978,82.0330,0,U,17590,999,3392,.12638666E-3,.207E-5,0
SL-14 R/B,1987-038B,2026-07-18T23:46:42.222144,14.85462840,.00208764,82.5015,173.1151,90.6237,269.7371,0,U,17912,999,9872,.21877211E-4,.214E-5,0
COSMOS 1844,1987-041A,2026-07-19T05:03:59.991264,14.14581291,.00310556,70.9000,116.7596,189.5290,170.5247,0,U,17973,999,2218,.13099289E-4,-.23E-6,0
SL-14 R/B,1987-055B,2026-07-19T03:30:56.592576,14.85728313,.0019201,82.4969,225.0998,301.1255,58.8077,0,U,18153,999,8945,.17746926E-4,.178E-5,0
COSMOS 1867,1987-060A,2026-07-19T06:27:40.469760,14.31518757,.00172511,65.0117,298.2108,281.9613,77.9537,0,U,18187,999,3877,.18545968E-4,-.51E-6,0
SL-14 R/B,1988-001B,2026-07-19T03:37:07.773888,14.85628117,.00184806,82.5117,71.7002,158.9698,201.2282,0,U,18749,999,6154,.17436374E-4,.176E-5,0
COSMOS 1933,1988-020A,2026-07-19T04:31:09.983136,15.18904236,.00059279,82.5141,120.7433,97.1387,263.0521,0,U,18958,999,7018,.95765645E-4,.203E-4,0
SL-3 R/B,1988-032B,2026-07-19T05:12:50.646240,15.21048514,.0026824,97.5279,183.2338,132.3302,228.0212,0,U,19046,999,7209,.94824329E-4,.2053E-4,0
SL-16 R/B,1988-039B,2026-07-19T06:02:15.202176,14.19631629,.00203931,71.0143,150.3580,142.8139,217.4403,0,U,19120,999,97705,.74383504E-4,.109E-5,0
COSMOS 1953,1988-050A,2026-07-19T06:11:07.481472,15.30369167,.00111493,82.5069,25.6791,26.7294,333.4519,0,U,19210,999,5789,.13848612E-3,.4107E-4,0
SL-8 R/B,1988-053B,2026-07-19T04:41:01.184640,14.38979441,.00198808,74.0453,230.0553,14.4309,51.1970,0,U,19257,999,99551,.40065555E-4,.97E-6,0
COSMOS 1975,1988-093A,2026-07-18T21:12:55.311264,15.29689461,.00123944,82.5208,345.8071,70.9795,289.2787,0,U,19573,999,3945,.14045255E-3,.4082E-4,0
SL-14 R/B,1988-093B,2026-07-19T04:33:06.800256,14.85761422,.00196912,82.5312,278.6022,326.6089,63.4550,0,U,19574,999,2054,.17800019E-4,.179E-5,0
SL-16 R/B,1988-102B,2026-07-19T05:08:51.657792,14.16167056,.00140833,70.9972,234.7496,179.2349,180.8798,0,U,19650,999,94551,.81372109E-4,.113E-5,0
INTERCOSMOS 24,1989-080A,2026-07-19T00:31:40.883808,12.59692918,.11870021,82.6054,18.9227,348.0627,9.4431,0,U,20261,999,68333,.31260318E-4,.118E-5,0
SL-14 R/B,1989-080C,2026-07-19T03:54:32.563296,12.50578938,.12288427,82.5929,88.7623,244.2122,102.7276,0,U,20262,999,67658,.15784417E-4,.56E-6,0
DELTA 1 R/B,1989-089B,2026-07-19T02:01:38.582112,14.50749067,.00705681,97.0637,26.5384,67.9535,292.9139,0,U,20323,999,91478,.36006989E-4,.111E-5,0
ARIANE 40 R/B,1990-005H,2026-07-19T03:33:19.465344,14.39941767,.00105355,98.2941,256.7675,162.5353,197.6200,0,U,20443,999,91172,.39370066E-4,.82E-6,0
DELTA 2 R/B(1),1990-008B,2026-07-18T13:45:59.859936,15.74164493,.0057119,35.5998,24.8567,48.2970,312.2639,0,U,20453,999,94664,.48844E-3,.81373E-3,0
